{"type":"FeatureCollection","features":[{"type":"Feature","properties":{"N03_001":"東京都","N03_002":"","N03_003":"","N03_004":"新宿区","N03_007":"13104"},"geometry":{"type":"MultiPolygon","coordinates":[[[[139.71397,35.67918],[139.71448,35.68009],[139.71472,35.68059],[139.71445,35.68111],[139.71357,35.68177],[139.71263,35.68248],[139.71146,35.68333],[139.71097,35.68337],[139.71049,35.68343],[139.70999,35.68375],[139.70929,35.68411],[139.70834,35.68418],[139.70772,35.68437],[139.70729,35.68536],[139.70722,35.68593],[139.7067,35.68654],[139.70609,35.68755],[139.70559,35.6881],[139.70462,35.68806],[139.70405,35.68797],[139.70256,35.68801],[139.70218,35.68845],[139.70149,35.68906],[139.70084,35.68893],[139.70016,35.68863],[139.69988,35.68854],[139.69914,35.68828],[139.69806,35.68787],[139.69648,35.68728],[139.69522,35.68675],[139.69382,35.68583],[139.69261,35.68497],[139.69186,35.68442],[139.69133,35.68405],[139.69088,35.68381],[139.69031,35.68345],[139.68909,35.68257],[139.68864,35.68221],[139.68833,35.68199],[139.68758,35.68167],[139.68719,35.68199],[139.686,35.68333],[139.68561,35.68393],[139.68522,35.68533],[139.685,35.68589],[139.68561,35.68612],[139.68591,35.68645],[139.68594,35.68674],[139.68592,35.6871],[139.68598,35.68789],[139.68395,35.68769],[139.68365,35.68803],[139.68333,35.68845],[139.68333,35.68928],[139.68335,35.68938],[139.68388,35.69003],[139.68448,35.6905],[139.68482,35.69142],[139.68424,35.69167],[139.68399,35.69199],[139.684,35.69221],[139.68389,35.69247],[139.68445,35.69307],[139.68518,35.69375],[139.68581,35.69458],[139.68665,35.69635],[139.68719,35.69735],[139.68819,35.69865],[139.68841,35.69933],[139.68837,35.7],[139.68764,35.70138],[139.6874,35.70222],[139.68757,35.70437],[139.68792,35.70538],[139.68809,35.70614],[139.68831,35.70677],[139.68869,35.70734],[139.6891,35.70762],[139.69054,35.70835],[139.69167,35.70905],[139.69243,35.70943],[139.69346,35.70994],[139.69431,35.71091],[139.69421,35.71105],[139.69262,35.71086],[139.69167,35.71127],[139.69146,35.71107],[139.69129,35.71053],[139.69016,35.71079],[139.69006,35.71126],[139.68977,35.71148],[139.68857,35.71139],[139.68746,35.7112],[139.6861,35.71088],[139.68542,35.71072],[139.68473,35.71055],[139.68416,35.71042],[139.68333,35.71025],[139.68265,35.71025],[139.68197,35.71075],[139.68147,35.71097],[139.68092,35.71108],[139.68064,35.71113],[139.68034,35.71126],[139.68127,35.71182],[139.68184,35.71309],[139.68117,35.71329],[139.68146,35.71396],[139.68085,35.71404],[139.6807,35.71443],[139.67992,35.71422],[139.67927,35.7147],[139.67911,35.71512],[139.67929,35.71571],[139.67955,35.71565],[139.67961,35.71607],[139.67924,35.7172],[139.67848,35.71825],[139.67806,35.7185],[139.67678,35.71954],[139.67635,35.71952],[139.67544,35.71982],[139.67528,35.71918],[139.675,35.71908],[139.67346,35.71886],[139.67349,35.71955],[139.67434,35.7202],[139.67437,35.72033],[139.6746,35.72135],[139.675,35.72148],[139.67572,35.72173],[139.67534,35.72336],[139.67536,35.72453],[139.67539,35.725],[139.67551,35.72528],[139.67562,35.72562],[139.67592,35.72631],[139.67643,35.72717],[139.67683,35.72823],[139.67691,35.72845],[139.67698,35.7291],[139.67702,35.72952],[139.67794,35.72905],[139.67812,35.72894],[139.67889,35.72852],[139.68017,35.72779],[139.68072,35.72741],[139.68135,35.72704],[139.68159,35.7266],[139.6821,35.72527],[139.68225,35.72474],[139.68246,35.72418],[139.6827,35.72371],[139.68333,35.72368],[139.68415,35.72379],[139.68432,35.72301],[139.68441,35.72252],[139.68519,35.72264],[139.68583,35.72269],[139.68688,35.7227],[139.68804,35.72261],[139.68902,35.7226],[139.69107,35.72247],[139.69167,35.72242],[139.69422,35.72209],[139.6956,35.72176],[139.69578,35.72197],[139.69735,35.72207],[139.69844,35.72231],[139.69897,35.72243],[139.69945,35.72292],[139.69962,35.72319],[139.69982,35.72355],[139.70048,35.72351],[139.70102,35.7235],[139.70177,35.72347],[139.70265,35.72338],[139.70373,35.72321],[139.70453,35.72289],[139.70432,35.72251],[139.70432,35.72214],[139.70496,35.72176],[139.70508,35.72088],[139.70521,35.72061],[139.7049,35.72028],[139.70501,35.71976],[139.7054,35.71905],[139.70581,35.71835],[139.70566,35.71759],[139.70558,35.71712],[139.70538,35.71649],[139.70481,35.71603],[139.70471,35.71507],[139.70483,35.7146],[139.70531,35.71445],[139.70588,35.71344],[139.70627,35.71343],[139.7072,35.71375],[139.70752,35.71383],[139.70834,35.71382],[139.70877,35.71371],[139.7096,35.71357],[139.71042,35.71346],[139.71074,35.71389],[139.71108,35.71465],[139.71166,35.71482],[139.7129,35.71421],[139.71364,35.71358],[139.71429,35.71324],[139.71484,35.71328],[139.71554,35.71362],[139.71594,35.71381],[139.71623,35.71363],[139.71679,35.71307],[139.71728,35.71292],[139.71865,35.71255],[139.71923,35.71257],[139.71967,35.71277],[139.72006,35.71259],[139.72035,35.71232],[139.72048,35.71257],[139.72081,35.71254],[139.7211,35.71245],[139.72223,35.71244],[139.72251,35.71226],[139.72216,35.71187],[139.72229,35.71137],[139.72298,35.71105],[139.72322,35.71078],[139.72406,35.7102],[139.725,35.70992],[139.72526,35.70972],[139.72592,35.70923],[139.72642,35.70946],[139.72703,35.70976],[139.72804,35.7098],[139.72822,35.70947],[139.72859,35.70931],[139.72972,35.70939],[139.73144,35.70935],[139.73182,35.70913],[139.73165,35.70834],[139.73167,35.70827],[139.73245,35.70739],[139.73288,35.70737],[139.73404,35.70772],[139.73467,35.70816],[139.73528,35.70821],[139.73543,35.70833],[139.73564,35.70886],[139.73611,35.70914],[139.73872,35.70873],[139.74148,35.70833],[139.74281,35.70813],[139.7433,35.70787],[139.74353,35.70744],[139.74485,35.70362],[139.74523,35.70329],[139.74575,35.70307],[139.74564,35.70274],[139.74526,35.70252],[139.74498,35.70237],[139.74458,35.70232],[139.7443,35.70216],[139.74384,35.70177],[139.74374,35.70085],[139.74304,35.70001],[139.74282,35.69979],[139.74167,35.69846],[139.73998,35.69629],[139.73908,35.695],[139.73779,35.69344],[139.73628,35.69219],[139.73584,35.69196],[139.73527,35.69167],[139.73399,35.69097],[139.73281,35.69016],[139.73208,35.6898],[139.73124,35.68923],[139.73102,35.68863],[139.73076,35.68788],[139.73027,35.68662],[139.73019,35.68607],[139.73,35.68554],[139.73012,35.68494],[139.73027,35.68451],[139.73056,35.68336],[139.73075,35.68288],[139.7315,35.6815],[139.73092,35.68115],[139.73022,35.68173],[139.72973,35.68253],[139.72846,35.68281],[139.72779,35.68179],[139.72751,35.68081],[139.72691,35.67966],[139.72604,35.67911],[139.72514,35.67923],[139.72469,35.67932],[139.72405,35.67912],[139.72318,35.67906],[139.72327,35.67856],[139.72216,35.67903],[139.72065,35.67913],[139.71993,35.67868],[139.71975,35.67841],[139.71977,35.67788],[139.71956,35.67741],[139.7198,35.67583],[139.71995,35.67532],[139.71974,35.67495],[139.71872,35.67418],[139.71667,35.67346],[139.71546,35.67389],[139.71486,35.67508],[139.71387,35.6747],[139.71292,35.675],[139.71296,35.67609],[139.7129,35.67704],[139.71397,35.67918]]]]}}]}